[{"OBJECT_NAME":"COSMOS 2532 (RODNIK-S 18)","OBJECT_ID":"2018-097C","EPOCH":"2026-03-09T22:25:40.338624","MEAN_MOTION":12.42905614,"ECCENTRICITY":0.00173426,"INCLINATION":82.5098,"RA_OF_ASC_NODE":283.7567,"ARG_OF_PERICENTER":274.4105,"MEAN_ANOMALY":85.4993,"EPHEMERIS_TYPE":0,"CLASSIFICATION_TYPE":"U","NORAD_CAT_ID":43753,"ELEMENT_SET_NO":999,"REV_AT_EPOCH":32994,"BSTAR":-0.0001937576,"MEAN_MOTION_DOT":-1.7e-7,"MEAN_MOTION_DDOT":0},{"OBJECT_NAME":"YUBELEINY 2 (RS40)","OBJECT_ID":"2012-041C","EPOCH":"2026-03-09T22:08:30.116256","MEAN_MOTION":12.42644399,"ECCENTRICITY":0.00161652,"INCLINATION":82.4769,"RA_OF_ASC_NODE":136.6014,"ARG_OF_PERICENTER":283.7741,"MEAN_ANOMALY":76.1539,"EPHEMERIS_TYPE":0,"CLASSIFICATION_TYPE":"U","NORAD_CAT_ID":38735,"ELEMENT_SET_NO":999,"REV_AT_EPOCH":61751,"BSTAR":6.96689e-5,"MEAN_MOTION_DOT":1.9e-7,"MEAN_MOTION_DDOT":0}]
